start=new Date('2022-10-05T00:00:00.000Z').valueOf();
sats=[{"CLASSIFICATION_TYPE":"U","PERIAPSIS":"546.239","INCLINATION":"53.0531","EPHEMERIS_TYPE":"0","ECCENTRICITY":"0.00014410","REF_FRAME":"TEME","RA_OF_ASC_NODE":"302.6849","RCS_SIZE":"LARGE","MEAN_MOTION_DOT":"0.00001565","OBJECT_NAME":"STARLINK-2547","TLE_LINE2":"2 48286  53.0531 302.6849 0001441  55.9531 304.1594 15.06392241 79585","CENTER_NAME":"EARTH","MEAN_ELEMENT_THEORY":"SGP4","APOAPSIS":"548.235","LAUNCH_DATE":"2021-04-29","ARG_OF_PERICENTER":"55.9531","TLE_LINE1":"1 48286U 21036L   22277.55496351  .00001565  00000-0  12396-3 0  9999","OBJECT_ID":"2021-036L","FILE":"3591597","MEAN_MOTION_DDOT":"0.0000000000000","TIME_SYSTEM":"UTC","DECAY_DATE":null,"REV_AT_EPOCH":"7958","SITE":"AFETR","OBJECT_TYPE":"PAYLOAD","PERIOD":"95.593","COUNTRY_CODE":"US","ELEMENT_SET_NO":"999","BSTAR":"0.00012396000000","NORAD_CAT_ID":"48286","MEAN_ANOMALY":"304.1594","SEMIMAJOR_AXIS":"6925.372","MEAN_MOTION":"15.06392241","EPOCH":"2022-10-04T13:19:08.847264","GP_ID":"214190725"},{"CENTER_NAME":"EARTH","MEAN_ELEMENT_THEORY":"SGP4","APOAPSIS":"548.411","LAUNCH_DATE":"2021-04-29","ARG_OF_PERICENTER":"57.9906","CLASSIFICATION_TYPE":"U","INCLINATION":"53.0536","PERIAPSIS":"546.004","EPHEMERIS_TYPE":"0","ECCENTRICITY":"0.00017380","REF_FRAME":"TEME","RA_OF_ASC_NODE":"302.9964","RCS_SIZE":"LARGE","OBJECT_NAME":"STARLINK-2566","MEAN_MOTION_DOT":"0.00008373","TLE_LINE2":"2 48287  53.0536 302.9964 0001738  57.9906 302.1252 15.06401896 80150","PERIOD":"95.592","BSTAR":"0.00058028000000","COUNTRY_CODE":"US","ELEMENT_SET_NO":"999","NORAD_CAT_ID":"48287","MEAN_ANOMALY":"302.1252","SEMIMAJOR_AXIS":"6925.343","MEAN_MOTION":"15.06401896","GP_ID":"214129163","EPOCH":"2022-10-04T11:38:16.903968","TLE_LINE1":"1 48287U 21036M   22277.48491787  .00008373  00000-0  58028-3 0  9996","OBJECT_ID":"2021-036M","FILE":"3590909","MEAN_MOTION_DDOT":"0.0000000000000","DECAY_DATE":null,"TIME_SYSTEM":"UTC","REV_AT_EPOCH":"8015","SITE":"AFETR","OBJECT_TYPE":"PAYLOAD"},{"INCLINATION":"53.0542","PERIAPSIS":"545.995","CLASSIFICATION_TYPE":"U","EPHEMERIS_TYPE":"0","REF_FRAME":"TEME","ECCENTRICITY":"0.00017780","TLE_LINE2":"2 48288  53.0542 302.7009 0001778  55.4452 304.6705 15.06395777 79584","OBJECT_NAME":"STARLINK-2562","RCS_SIZE":"LARGE","MEAN_MOTION_DOT":"0.00002192","RA_OF_ASC_NODE":"302.7009","MEAN_ELEMENT_THEORY":"SGP4","APOAPSIS":"548.458","CENTER_NAME":"EARTH","ARG_OF_PERICENTER":"55.4452","LAUNCH_DATE":"2021-04-29","FILE":"3591597","OBJECT_ID":"2021-036N","TLE_LINE1":"1 48288U 21036N   22277.54665079  .00002192  00000-0  16600-3 0  9994","REV_AT_EPOCH":"7958","TIME_SYSTEM":"UTC","DECAY_DATE":null,"MEAN_MOTION_DDOT":"0.0000000000000","OBJECT_TYPE":"PAYLOAD","SITE":"AFETR","COUNTRY_CODE":"US","BSTAR":"0.00016600000000","NORAD_CAT_ID":"48288","ELEMENT_SET_NO":"999","PERIOD":"95.592","MEAN_ANOMALY":"304.6705","SEMIMAJOR_AXIS":"6925.362","MEAN_MOTION":"15.06395777","EPOCH":"2022-10-04T13:07:10.628256","GP_ID":"214189724"},{"CENTER_NAME":"EARTH","APOAPSIS":"548.502","MEAN_ELEMENT_THEORY":"SGP4","LAUNCH_DATE":"2021-04-29","ARG_OF_PERICENTER":"45.9151","EPHEMERIS_TYPE":"0","CLASSIFICATION_TYPE":"U","PERIAPSIS":"545.908","INCLINATION":"53.0546","RA_OF_ASC_NODE":"301.5328","RCS_SIZE":"LARGE","MEAN_MOTION_DOT":"0.00000359","OBJECT_NAME":"STARLINK-2545","TLE_LINE2":"2 48289  53.0546 301.5328 0001873  45.9151 314.1992 15.06402784 79622","ECCENTRICITY":"0.00018730","REF_FRAME":"TEME","MEAN_ANOMALY":"314.1992","SEMIMAJOR_AXIS":"6925.340","PERIOD":"95.592","COUNTRY_CODE":"US","ELEMENT_SET_NO":"999","BSTAR":"0.00004300200000","NORAD_CAT_ID":"48289","GP_ID":"214189974","EPOCH":"2022-10-04T19:25:22.946304","MEAN_MOTION":"15.06402784","TLE_LINE1":"1 48289U 21036P   22277.80929336  .00000359  00000-0  43002-4 0  9993","OBJECT_ID":"2021-036P","FILE":"3591597","SITE":"AFETR","OBJECT_TYPE":"PAYLOAD","MEAN_MOTION_DDOT":"0.0000000000000","TIME_SYSTEM":"UTC","DECAY_DATE":null,"REV_AT_EPOCH":"7962"},{"LAUNCH_DATE":"2021-04-29","ARG_OF_PERICENTER":"65.8492","CENTER_NAME":"EARTH","APOAPSIS":"548.421","MEAN_ELEMENT_THEORY":"SGP4","ECCENTRICITY":"0.00018000","REF_FRAME":"TEME","RA_OF_ASC_NODE":"301.5402","OBJECT_NAME":"STARLINK-2540","RCS_SIZE":"LARGE","MEAN_MOTION_DOT":"0.00003114","TLE_LINE2":"2 48290  53.0530 301.5402 0001800  65.8492 294.2685 15.06412743 79622","CLASSIFICATION_TYPE":"U","INCLINATION":"53.0530","PERIAPSIS":"545.928","EPHEMERIS_TYPE":"0","MEAN_MOTION":"15.06412743","GP_ID":"214191226","EPOCH":"2022-10-04T19:20:04.611552","PERIOD":"95.591","BSTAR":"0.00022776000000","COUNTRY_CODE":"US","ELEMENT_SET_NO":"999","NORAD_CAT_ID":"48290","MEAN_ANOMALY":"294.2685","SEMIMAJOR_AXIS":"6925.310","MEAN_MOTION_DDOT":"0.0000000000000","DECAY_DATE":null,"TIME_SYSTEM":"UTC","REV_AT_EPOCH":"7962","SITE":"AFETR","OBJECT_TYPE":"PAYLOAD","TLE_LINE1":"1 48290U 21036Q   22277.80560893  .00003114  00000-0  22776-3 0  9990","OBJECT_ID":"2021-036Q","FILE":"3591597"},{"DECAY_DATE":null,"TIME_SYSTEM":"UTC","MEAN_MOTION_DDOT":"0.0000000000000","REV_AT_EPOCH":"7955","SITE":"AFETR","OBJECT_TYPE":"PAYLOAD","OBJECT_ID":"2021-036R","TLE_LINE1":"1 48291U 21036R   22277.33748641  .00002226  00000-0  16829-3 0  9993","FILE":"3591197","MEAN_MOTION":"15.06405355","EPOCH":"2022-10-04T08:05:58.825824","GP_ID":"214157587","PERIOD":"95.592","COUNTRY_CODE":"US","NORAD_CAT_ID":"48291","BSTAR":"0.00016829000000","ELEMENT_SET_NO":"999","SEMIMAJOR_AXIS":"6925.332","MEAN_ANOMALY":"305.3074","ECCENTRICITY":"0.00017100","REF_FRAME":"TEME","RCS_SIZE":"LARGE","OBJECT_NAME":"STARLINK-2555","MEAN_MOTION_DOT":"0.00002226","RA_OF_ASC_NODE":"303.6401","TLE_LINE2":"2 48291  53.0543 303.6401 0001710  54.8074 305.3074 15.06405355 79552","PERIAPSIS":"546.013","INCLINATION":"53.0543","CLASSIFICATION_TYPE":"U","EPHEMERIS_TYPE":"0","LAUNCH_DATE":"2021-04-29","ARG_OF_PERICENTER":"54.8074","CENTER_NAME":"EARTH","MEAN_ELEMENT_THEORY":"SGP4","APOAPSIS":"548.381"},{"CLASSIFICATION_TYPE":"U","PERIAPSIS":"545.857","INCLINATION":"53.0533","EPHEMERIS_TYPE":"0","REF_FRAME":"TEME","ECCENTRICITY":"0.00019540","TLE_LINE2":"2 48292  53.0533 303.7754 0001954  58.7838 301.3343 15.06400983 79552","RA_OF_ASC_NODE":"303.7754","RCS_SIZE":"LARGE","MEAN_MOTION_DOT":"0.00002674","OBJECT_NAME":"STARLINK-2542","APOAPSIS":"548.564","MEAN_ELEMENT_THEORY":"SGP4","CENTER_NAME":"EARTH","ARG_OF_PERICENTER":"58.7838","LAUNCH_DATE":"2021-04-29","FILE":"3591197","TLE_LINE1":"1 48292U 21036S   22277.34857186  .00002674  00000-0  19838-3 0  9990","OBJECT_ID":"2021-036S","REV_AT_EPOCH":"7955","MEAN_MOTION_DDOT":"0.0000000000000","TIME_SYSTEM":"UTC","DECAY_DATE":null,"OBJECT_TYPE":"PAYLOAD","SITE":"AFETR","COUNTRY_CODE":"US","NORAD_CAT_ID":"48292","BSTAR":"0.00019838000000","ELEMENT_SET_NO":"999","PERIOD":"95.592","MEAN_ANOMALY":"301.3343","SEMIMAJOR_AXIS":"6925.346","MEAN_MOTION":"15.06400983","GP_ID":"214157837","EPOCH":"2022-10-04T08:21:56.608704"},{"EPOCH":"2022-10-04T19:04:09.169248","GP_ID":"214190475","MEAN_MOTION":"15.06406866","MEAN_ANOMALY":"300.4019","SEMIMAJOR_AXIS":"6925.328","ELEMENT_SET_NO":"999","COUNTRY_CODE":"US","BSTAR":"0.00009960700000","NORAD_CAT_ID":"48293","PERIOD":"95.592","OBJECT_TYPE":"PAYLOAD","SITE":"AFETR","REV_AT_EPOCH":"7962","TIME_SYSTEM":"UTC","DECAY_DATE":null,"MEAN_MOTION_DDOT":"0.0000000000000","FILE":"3591597","OBJECT_ID":"2021-036T","TLE_LINE1":"1 48293U 21036T   22277.79455057  .00001203  00000-0  99607-4 0  9991","ARG_OF_PERICENTER":"59.7143","LAUNCH_DATE":"2021-04-29","APOAPSIS":"548.404","MEAN_ELEMENT_THEORY":"SGP4","CENTER_NAME":"EARTH","TLE_LINE2":"2 48293  53.0533 301.6029 0001750  59.7143 300.4019 15.06406866 79623","RCS_SIZE":"LARGE","OBJECT_NAME":"STARLINK-2550","MEAN_MOTION_DOT":"0.00001203","RA_OF_ASC_NODE":"301.6029","REF_FRAME":"TEME","ECCENTRICITY":"0.00017500","EPHEMERIS_TYPE":"0","INCLINATION":"53.0533","PERIAPSIS":"545.981","CLASSIFICATION_TYPE":"U"},{"REF_FRAME":"TEME","ECCENTRICITY":"0.00017710","TLE_LINE2":"2 48294  53.0542 301.6118 0001771  56.8650 303.2509 15.06403181 79629","OBJECT_NAME":"STARLINK-2533","RCS_SIZE":"LARGE","MEAN_MOTION_DOT":"0.00001495","RA_OF_ASC_NODE":"301.6118","PERIAPSIS":"545.977","INCLINATION":"53.0542","CLASSIFICATION_TYPE":"U","EPHEMERIS_TYPE":"0","ARG_OF_PERICENTER":"56.8650","LAUNCH_DATE":"2021-04-29","MEAN_ELEMENT_THEORY":"SGP4","APOAPSIS":"548.430","CENTER_NAME":"EARTH","REV_AT_EPOCH":"7962","TIME_SYSTEM":"UTC","DECAY_DATE":null,"MEAN_MOTION_DDOT":"0.0000000000000","OBJECT_TYPE":"PAYLOAD","SITE":"AFETR","FILE":"3591597","OBJECT_ID":"2021-036U","TLE_LINE1":"1 48294U 21036U   22277.79085904  .00001495  00000-0  11921-3 0  9997","MEAN_MOTION":"15.06403181","GP_ID":"214190726","EPOCH":"2022-10-04T18:58:50.221056","ELEMENT_SET_NO":"999","COUNTRY_CODE":"US","BSTAR":"0.00011921000000","NORAD_CAT_ID":"48294","PERIOD":"95.592","SEMIMAJOR_AXIS":"6925.339","MEAN_ANOMALY":"303.2509"},{"PERIOD":"95.592","BSTAR":"-0.00001981900000","COUNTRY_CODE":"US","NORAD_CAT_ID":"48295","ELEMENT_SET_NO":"999","MEAN_ANOMALY":"302.6831","SEMIMAJOR_AXIS":"6925.340","MEAN_MOTION":"15.06402793","GP_ID":"214191477","EPOCH":"2022-10-04T18:53:32.168832","TLE_LINE1":"1 48295U 21036V   22277.78717788 -.00000577  00000-0 -19819-4 0  9996","OBJECT_ID":"2021-036V","FILE":"3591597","MEAN_MOTION_DDOT":"0.0000000000000","TIME_SYSTEM":"UTC","DECAY_DATE":null,"REV_AT_EPOCH":"7962","SITE":"AFETR","OBJECT_TYPE":"PAYLOAD","CENTER_NAME":"EARTH","MEAN_ELEMENT_THEORY":"SGP4","APOAPSIS":"548.400","LAUNCH_DATE":"2021-04-29","ARG_OF_PERICENTER":"57.4325","CLASSIFICATION_TYPE":"U","INCLINATION":"53.0533","PERIAPSIS":"546.010","EPHEMERIS_TYPE":"0","ECCENTRICITY":"0.00017260","REF_FRAME":"TEME","RA_OF_ASC_NODE":"301.6366","RCS_SIZE":"LARGE","OBJECT_NAME":"STARLINK-2535","MEAN_MOTION_DOT":"-0.00000577","TLE_LINE2":"2 48295  53.0533 301.6366 0001726  57.4325 302.6831 15.06402793 79620"}];
